[
    {
        "Altitude(m)": 610399.5315787393,
        "Argument of Periapsis(deg)": 0.0,
        "Eccentricity": 0.0,
        "Inclination(deg)": 60.0,
        "Latitude(deg)": 52.11134250498551,
        "Longitude(deg)": -162.41557562185983,
        "Mean Anomaly(deg)": 65.45449999999998,
        "RAAN(deg)": 250.00000000000003,
        "Satellite Name": "Test1 1104",
        "Satellite Number": 1104,
        "Semi-Major Axis(m)": 6980739.136638005,
        "Time(s)": 0
    },
    {
        "Altitude(m)": 610481.6821985614,
        "Argument of Periapsis(deg)": 0.00010418945913296404,
        "Eccentricity": 0.0,
        "Inclination(deg)": 60.0,
        "Latitude(deg)": 52.47094349237295,
        "Longitude(deg)": -161.63343773165923,
        "Mean Anomaly(deg)": 66.07460614546183,
        "RAAN(deg)": 249.99957995086027,
        "Satellite Name": "Test1 1104",
        "Satellite Number": 1104,
        "Semi-Major Axis(m)": 6980739.136638005,
        "Time(s)": 10
    }
]